PELICAN-1               
1 58296U 23174AS  26191.21846570  .00006951  00000+0  54185-4 0  9996
2 58296  97.4009 293.0009 0002521 190.7359 169.3851 15.72060428149785
PELICAN-2               
1 62631U 25009Y   26195.77914761 -.00000010  00000+0  17231-5 0  9999
2 62631  97.2070 286.3390 0002304 119.8367 240.3109 15.40619008 83802
PELICAN-3               
1 65315U 25188A   26196.16578969  .00004707  00000+0  11495-3 0  9999
2 65315  97.1982 271.9013 0002065 112.2315 247.9151 15.41326708 49626
PELICAN-4               
1 65316U 25188B   26196.18505314  .00004855  00000+0  12213-3 0  9999
2 65316  97.1999 272.0718 0001708  81.9421 278.2020 15.40405487 49625
PELICAN-5               
1 66667U 25276B   26196.04386580  .00002974  00000+0  97107-4 0  9990
2 66667  97.4121 271.0151 0001594  27.8262 332.3065 15.32563083 34780
PELICAN-6               
1 66703U 25276AP  26195.45564962  .00008380  00000+0  27948-3 0  9999
2 66703  97.3741 270.4386 0003116  39.3159 320.8308 15.31323409 34705
PELICAN-7               
1 69017U 26100AP  26195.66892442  .00000627  00000+0  29119-4 0  9996
2 69017  97.3863  93.1242 0003103  89.2047 270.9546 15.23602267 10995
PELICAN-9               
1 69019U 26100AR  26195.64550802  .00001159  00000+0  53115-4 0  9991
2 69019  97.3677  92.9304 0000255 356.4900   3.6335 15.22416343 10981
