{"fetched_at":"2026-07-15T17:46:48.171Z","source":"https://celestrak.org/NORAD/elements/gp.php?GROUP=planet&FORMAT=JSON","constellation":"pelican","records":[{"OBJECT_NAME":"PELICAN-1","OBJECT_ID":"2023-174AS","EPOCH":"2026-07-10T05:14:35.436480","CLASSIFICATION_TYPE":"U","MEAN_MOTION":15.72060428,"ECCENTRICITY":0.0002521,"INCLINATION":97.4009,"RA_OF_ASC_NODE":293.0009,"ARG_OF_PERICENTER":190.7359,"MEAN_ANOMALY":169.3851,"EPHEMERIS_TYPE":0,"NORAD_CAT_ID":58296,"ELEMENT_SET_NO":999,"REV_AT_EPOCH":14978,"BSTAR":0.000054184842,"MEAN_MOTION_DOT":0.00006951,"MEAN_MOTION_DDOT":0},{"OBJECT_NAME":"PELICAN-2","OBJECT_ID":"2025-009Y","EPOCH":"2026-07-14T18:41:58.353504","CLASSIFICATION_TYPE":"U","MEAN_MOTION":15.40619008,"ECCENTRICITY":0.00023048,"INCLINATION":97.207,"RA_OF_ASC_NODE":286.339,"ARG_OF_PERICENTER":119.8367,"MEAN_ANOMALY":240.3109,"EPHEMERIS_TYPE":0,"NORAD_CAT_ID":62631,"ELEMENT_SET_NO":999,"REV_AT_EPOCH":8380,"BSTAR":0.000001723092,"MEAN_MOTION_DOT":-1e-7,"MEAN_MOTION_DDOT":0},{"OBJECT_NAME":"PELICAN-3","OBJECT_ID":"2025-188A","EPOCH":"2026-07-15T03:58:44.229216","CLASSIFICATION_TYPE":"U","MEAN_MOTION":15.41326708,"ECCENTRICITY":0.0002065,"INCLINATION":97.1982,"RA_OF_ASC_NODE":271.9013,"ARG_OF_PERICENTER":112.2315,"MEAN_ANOMALY":247.9151,"EPHEMERIS_TYPE":0,"NORAD_CAT_ID":65315,"ELEMENT_SET_NO":999,"REV_AT_EPOCH":4962,"BSTAR":0.00011495,"MEAN_MOTION_DOT":0.00004707,"MEAN_MOTION_DDOT":0},{"OBJECT_NAME":"PELICAN-4","OBJECT_ID":"2025-188B","EPOCH":"2026-07-15T04:26:28.591296","CLASSIFICATION_TYPE":"U","MEAN_MOTION":15.40405487,"ECCENTRICITY":0.0001708,"INCLINATION":97.1999,"RA_OF_ASC_NODE":272.0718,"ARG_OF_PERICENTER":81.9421,"MEAN_ANOMALY":278.202,"EPHEMERIS_TYPE":0,"NORAD_CAT_ID":65316,"ELEMENT_SET_NO":999,"REV_AT_EPOCH":4962,"BSTAR":0.00012213,"MEAN_MOTION_DOT":0.00004855,"MEAN_MOTION_DDOT":0},{"OBJECT_NAME":"PELICAN-5","OBJECT_ID":"2025-276B","EPOCH":"2026-07-15T01:03:10.005120","CLASSIFICATION_TYPE":"U","MEAN_MOTION":15.32563083,"ECCENTRICITY":0.0001594,"INCLINATION":97.4121,"RA_OF_ASC_NODE":271.0151,"ARG_OF_PERICENTER":27.8262,"MEAN_ANOMALY":332.3065,"EPHEMERIS_TYPE":0,"NORAD_CAT_ID":66667,"ELEMENT_SET_NO":999,"REV_AT_EPOCH":3478,"BSTAR":0.000097107,"MEAN_MOTION_DOT":0.00002974,"MEAN_MOTION_DDOT":0},{"OBJECT_NAME":"PELICAN-6","OBJECT_ID":"2025-276AP","EPOCH":"2026-07-14T10:56:08.127168","CLASSIFICATION_TYPE":"U","MEAN_MOTION":15.31323409,"ECCENTRICITY":0.00031169,"INCLINATION":97.3741,"RA_OF_ASC_NODE":270.4386,"ARG_OF_PERICENTER":39.3159,"MEAN_ANOMALY":320.8308,"EPHEMERIS_TYPE":0,"NORAD_CAT_ID":66703,"ELEMENT_SET_NO":999,"REV_AT_EPOCH":3470,"BSTAR":0.00027948138,"MEAN_MOTION_DOT":0.0000838,"MEAN_MOTION_DDOT":0},{"OBJECT_NAME":"PELICAN-7","OBJECT_ID":"2026-100AP","EPOCH":"2026-07-14T16:03:15.069888","CLASSIFICATION_TYPE":"U","MEAN_MOTION":15.23602267,"ECCENTRICITY":0.00031038,"INCLINATION":97.3863,"RA_OF_ASC_NODE":93.1242,"ARG_OF_PERICENTER":89.2047,"MEAN_ANOMALY":270.9546,"EPHEMERIS_TYPE":0,"NORAD_CAT_ID":69017,"ELEMENT_SET_NO":999,"REV_AT_EPOCH":1099,"BSTAR":0.000029118581,"MEAN_MOTION_DOT":0.00000627,"MEAN_MOTION_DDOT":0},{"OBJECT_NAME":"PELICAN-9","OBJECT_ID":"2026-100AR","EPOCH":"2026-07-14T15:29:31.892928","CLASSIFICATION_TYPE":"U","MEAN_MOTION":15.22416343,"ECCENTRICITY":0.00002557,"INCLINATION":97.3677,"RA_OF_ASC_NODE":92.9304,"ARG_OF_PERICENTER":356.49,"MEAN_ANOMALY":3.6335,"EPHEMERIS_TYPE":0,"NORAD_CAT_ID":69019,"ELEMENT_SET_NO":999,"REV_AT_EPOCH":1098,"BSTAR":0.000053115447,"MEAN_MOTION_DOT":0.00001159,"MEAN_MOTION_DDOT":0}]}
